{
  "type": "FeatureCollection",
  "features": [
    {
      "type": "Feature",
      "properties": {
        "norad_id": 33860,
        "name": "IRIDIUM 33 DEB",
        "group": "iridium-33-debris",
        "lat": -38.024695816844456,
        "lon": 19.766858469105923,
        "alt_km": 671.2625541034886,
        "timestamp": "2025-12-23T05:02:12.414879+00:00",
        "meta_object_name": "IRIDIUM 33 DEB",
        "meta_object_id": "1997-051AD",
        "meta_epoch": "2025-12-22T20:12:18.436320",
        "meta_mean_motion": 14.67480944,
        "meta_eccentricity": 0.00062174,
        "meta_inclination": 86.3821,
        "meta_ra_of_asc_node": 22.7657,
        "meta_arg_of_pericenter": 318.6356,
        "meta_mean_anomaly": 220.5655,
        "meta_ephemeris_type": 0,
        "meta_classification_type": "U",
        "meta_norad_cat_id": 33860,
        "meta_element_set_no": 999,
        "meta_rev_at_epoch": 88870,
        "meta_bstar": 0.0011220687,
        "meta_mean_motion_dot": 6.378e-05,
        "meta_mean_motion_ddot": 0,
        "tle_line1": "1 33860U 97051AD  25356.84188005  .00006378  00000+0  11221-2 0  9999",
        "tle_line2": "2 33860  86.3821  22.7657 0006217 318.6356 220.5655 14.67480944888700"
      },
      "geometry": {
        "type": "Point",
        "coordinates": [
          19.766858469105923,
          -38.024695816844456
        ]
      }
    },
    {
      "type": "Feature",
      "properties": {
        "norad_id": 33862,
        "name": "IRIDIUM 33 DEB",
        "group": "iridium-33-debris",
        "lat": 77.19873740452002,
        "lon": 48.96295165725308,
        "alt_km": 628.33432469527,
        "timestamp": "2025-12-23T05:02:12.414889+00:00",
        "meta_object_name": "IRIDIUM 33 DEB",
        "meta_object_id": "1997-051AF",
        "meta_epoch": "2025-12-22T12:52:54.283296",
        "meta_mean_motion": 14.69620886,
        "meta_eccentricity": 0.00524276,
        "meta_inclination": 86.4077,
        "meta_ra_of_asc_node": 33.2095,
        "meta_arg_of_pericenter": 36.2617,
        "meta_mean_anomaly": 82.096,
        "meta_ephemeris_type": 0,
        "meta_classification_type": "U",
        "meta_norad_cat_id": 33862,
        "meta_element_set_no": 999,
        "meta_rev_at_epoch": 88967,
        "meta_bstar": 0.0015539154,
        "meta_mean_motion_dot": 9.461e-05,
        "meta_mean_motion_ddot": 0,
        "tle_line1": "1 33862U 97051AF  25356.53673939  .00009461  00000+0  15539-2 0  9994",
        "tle_line2": "2 33862  86.4077  33.2095 0052427  36.2617  82.0960 14.69620886889676"
      },
      "geometry": {
        "type": "Point",
        "coordinates": [
          48.96295165725308,
          77.19873740452002
        ]
      }
    },
    {
      "type": "Feature",
      "properties": {
        "norad_id": 33866,
        "name": "IRIDIUM 33 DEB",
        "group": "iridium-33-debris",
        "lat": -81.85601186523714,
        "lon": 61.723715720555006,
        "alt_km": 885.6158542527373,
        "timestamp": "2025-12-23T05:02:12.414900+00:00",
        "meta_object_name": "IRIDIUM 33 DEB",
        "meta_object_id": "1997-051AK",
        "meta_epoch": "2025-12-22T05:58:49.941696",
        "meta_mean_motion": 14.25302348,
        "meta_eccentricity": 0.01150469,
        "meta_inclination": 86.3001,
        "meta_ra_of_asc_node": 89.0128,
        "meta_arg_of_pericenter": 131.2544,
        "meta_mean_anomaly": 259.1044,
        "meta_ephemeris_type": 0,
        "meta_classification_type": "U",
        "meta_norad_cat_id": 33866,
        "meta_element_set_no": 999,
        "meta_rev_at_epoch": 86946,
        "meta_bstar": 0.00050535562,
        "meta_mean_motion_dot": 1.294e-05,
        "meta_mean_motion_ddot": 0,
        "tle_line1": "1 33866U 97051AK  25356.24918914  .00001294  00000+0  50536-3 0  9994",
        "tle_line2": "2 33866  86.3001  89.0128 0115046 131.2544 259.1044 14.25302348869461"
      },
      "geometry": {
        "type": "Point",
        "coordinates": [
          61.723715720555006,
          -81.85601186523714
        ]
      }
    },
    {
      "type": "Feature",
      "properties": {
        "norad_id": 33867,
        "name": "IRIDIUM 33 DEB",
        "group": "iridium-33-debris",
        "lat": -2.90886591797119,
        "lon": -15.61456710002955,
        "alt_km": 280.3482195623901,
        "timestamp": "2025-12-23T05:02:12.414911+00:00",
        "meta_object_name": "IRIDIUM 33 DEB",
        "meta_object_id": "1997-051AL",
        "meta_epoch": "2025-12-22T11:00:02.746368",
        "meta_mean_motion": 15.94011051,
        "meta_eccentricity": 0.0013656,
        "meta_inclination": 86.3662,
        "meta_ra_of_asc_node": 344.9772,
        "meta_arg_of_pericenter": 104.8485,
        "meta_mean_anomaly": 255.4311,
        "meta_ephemeris_type": 0,
        "meta_classification_type": "U",
        "meta_norad_cat_id": 33867,
        "meta_element_set_no": 999,
        "meta_rev_at_epoch": 89664,
        "meta_bstar": 0.0093592392,
        "meta_mean_motion_dot": 0.03057152,
        "meta_mean_motion_ddot": 0.0088726237,
        "tle_line1": "1 33867U 97051AL  25356.45836512  .03057152  88726-2  93592-2 0  9990",
        "tle_line2": "2 33867  86.3662 344.9772 0013656 104.8485 255.4311 15.94011051896648"
      },
      "geometry": {
        "type": "Point",
        "coordinates": [
          -15.61456710002955,
          -2.90886591797119
        ]
      }
    },
    {
      "type": "Feature",
      "properties": {
        "norad_id": 33870,
        "name": "IRIDIUM 33 DEB",
        "group": "iridium-33-debris",
        "lat": 69.53983217454554,
        "lon": 63.5595632380267,
        "alt_km": 728.2033430932224,
        "timestamp": "2025-12-23T05:02:12.414922+00:00",
        "meta_object_name": "IRIDIUM 33 DEB",
        "meta_object_id": "1997-051AP",
        "meta_epoch": "2025-12-22T16:01:21.825408",
        "meta_mean_motion": 14.45898078,
        "meta_eccentricity": 0.00224522,
        "meta_inclination": 86.3736,
        "meta_ra_of_asc_node": 54.0053,
        "meta_arg_of_pericenter": 146.535,
        "meta_mean_anomaly": 342.8525,
        "meta_ephemeris_type": 0,
        "meta_classification_type": "U",
        "meta_norad_cat_id": 33870,
        "meta_element_set_no": 999,
        "meta_rev_at_epoch": 88280,
        "meta_bstar": 0.00065938146,
        "meta_mean_motion_dot": 2.37e-05,
        "meta_mean_motion_ddot": 0,
        "tle_line1": "1 33870U 97051AP  25356.66761372  .00002370  00000+0  65938-3 0  9997",
        "tle_line2": "2 33870  86.3736  54.0053 0022452 146.5350 342.8525 14.45898078882801"
      },
      "geometry": {
        "type": "Point",
        "coordinates": [
          63.5595632380267,
          69.53983217454554
        ]
      }
    },
    {
      "type": "Feature",
      "properties": {
        "norad_id": 33881,
        "name": "IRIDIUM 33 DEB",
        "group": "iridium-33-debris",
        "lat": -15.964377635477733,
        "lon": 101.15684325676904,
        "alt_km": 748.3665323014075,
        "timestamp": "2025-12-23T05:02:12.414932+00:00",
        "meta_object_name": "IRIDIUM 33 DEB",
        "meta_object_id": "1997-051BA",
        "meta_epoch": "2025-12-22T19:48:34.710336",
        "meta_mean_motion": 14.56741878,
        "meta_eccentricity": 0.00612167,
        "meta_inclination": 86.3868,
        "meta_ra_of_asc_node": 102.3597,
        "meta_arg_of_pericenter": 142.0862,
        "meta_mean_anomaly": 347.3767,
        "meta_ephemeris_type": 0,
        "meta_classification_type": "U",
        "meta_norad_cat_id": 33881,
        "meta_element_set_no": 999,
        "meta_rev_at_epoch": 87647,
        "meta_bstar": 0.0020565617,
        "meta_mean_motion_dot": 9.456e-05,
        "meta_mean_motion_ddot": 0,
        "tle_line1": "1 33881U 97051BA  25356.82540174  .00009456  00000+0  20566-2 0  9991",
        "tle_line2": "2 33881  86.3868 102.3597 0061216 142.0862 347.3767 14.56741878876470"
      },
      "geometry": {
        "type": "Point",
        "coordinates": [
          101.15684325676904,
          -15.964377635477733
        ]
      }
    },
    {
      "type": "Feature",
      "properties": {
        "norad_id": 33884,
        "name": "IRIDIUM 33 DEB",
        "group": "iridium-33-debris",
        "lat": -3.747305582043585,
        "lon": 4.852802617703291,
        "alt_km": 638.6420381985936,
        "timestamp": "2025-12-23T05:02:12.414943+00:00",
        "meta_object_name": "IRIDIUM 33 DEB",
        "meta_object_id": "1997-051BD",
        "meta_epoch": "2025-12-21T19:42:17.168256",
        "meta_mean_motion": 14.77591703,
        "meta_eccentricity": 0.00089767,
        "meta_inclination": 86.3691,
        "meta_ra_of_asc_node": 5.7181,
        "meta_arg_of_pericenter": 287.8241,
        "meta_mean_anomaly": 245.5748,
        "meta_ephemeris_type": 0,
        "meta_classification_type": "U",
        "meta_norad_cat_id": 33884,
        "meta_element_set_no": 999,
        "meta_rev_at_epoch": 88981,
        "meta_bstar": 0.0012315655,
        "meta_mean_motion_dot": 8.831e-05,
        "meta_mean_motion_ddot": 0,
        "tle_line1": "1 33884U 97051BD  25355.82103204  .00008831  00000+0  12316-2 0  9992",
        "tle_line2": "2 33884  86.3691   5.7181 0008976 287.8241 245.5748 14.77591703889818"
      },
      "geometry": {
        "type": "Point",
        "coordinates": [
          4.852802617703291,
          -3.747305582043585
        ]
      }
    }
  ]
}